{"fetched_at":"2026-03-29T08:39:39Z","count":15728,"tles":[{"name":"CENTISPACE-1 OBJECT J","line1":"1 68358U 26060J   26084.61779005  .00000017  00000+0  33263-4 0  9997","line2":"2 68358  54.9877  16.6351 0013871 306.1411  53.8304 14.75435012   443","category":"Other"},{"name":"CZ-2D R/B","line1":"1 68379U 26062C   26087.61020458  .00007350  00000+0  23729-3 0  9998","line2":"2 68379  97.4990  95.9174 0053658  52.3584 308.2508 15.31012890   413","category":"Other"},{"name":"CENTISPACE-1 OBJECT K","line1":"1 68359U 26060K   26086.92097867  .00000040  00000+0  36585-4 0  9999","line2":"2 68359  54.9797   7.2302 0014523 311.8804  48.0956 14.75497793   781","category":"Other"},{"name":"CENTISPACE-1 OBJECT H","line1":"1 68357U 26060H   26084.61780387  .00000019  00000+0  33492-4 0  9997","line2":"2 68357  54.9848  16.6351 0014470 304.4277  55.5354 14.75425125   445","category":"Other"},{"name":"2026-064A","line1":"1 68405U 26064A   26087.72941281  .00006303  00000+0  26576-3 0  9998","line2":"2 68405  97.4665 163.6715 0014898 226.1610 133.8396 15.23574602   243","category":"Other"},{"name":"SUPERVIEW NEO-2 OBJECT A","line1":"1 68377U 26062A   26087.10259730  .00001488  00000+0  72014-4 0  9995","line2":"2 68377  97.4379  95.5549 0008168 263.6047  96.4258 15.20117201   330","category":"Other"},{"name":"SUPERVIEW NEO-2 OBJECT B","line1":"1 68378U 26062B   26086.04924529  .00003139  00000+0  14873-3 0  9996","line2":"2 68378  97.4356  94.5245 0010396 272.3840  87.6205 15.20012563   173","category":"Other"}]}